ONEWEB-0584             
1 54651U 22166K   26117.29517040 -.00000767  00000+0 -18876-2 0  9996
2 54651  87.9216 254.1166 0001955 105.5423 254.5927 13.21828837164795
ONEWEB-0585             
1 54652U 22166L   26117.09163741  .00000037  00000+0  57778-4 0  9994
2 54652  87.9217 254.1419 0001824  95.3509 264.7833 13.21826058164774
ONEWEB-0586             
1 54653U 22166M   26116.87801948  .00000076  00000+0  15172-3 0  9992
2 54653  87.9216 254.2107 0002041 103.1715 256.9647 13.21824549164744
ONEWEB-0587             
1 54654U 22166N   26117.11520148  .00000015  00000+0  50700-5 0  9992
2 54654  87.9228 254.1320 0001683  89.6555 270.4772 13.21826980164937
ONEWEB-0589             
1 54655U 22166P   26117.32883431  .00000111  00000+0  23768-3 0  9992
2 54655  87.9214 254.1081 0002417 118.7968 241.3409 13.21824362164829
ONEWEB-0590             
1 54656U 22166Q   26117.12684170 -.00000105  00000+0 -28612-3 0  9998
2 54656  87.9223 254.1336 0001526 110.4537 249.6761 13.21826944164789
ONEWEB-0591             
1 54657U 22166R   26117.29014090 -.00003048  00000+0 -74111-2 0  9998
2 54657  87.9217 254.1199 0001883  99.6683 260.4663 13.21842402164831
ONEWEB-0592             
1 54658U 22166S   26117.29350803 -.00000011  00000+0 -59214-4 0  9990
2 54658  87.9225 254.0930 0001851  99.7355 260.3988 13.21827267164713
ONEWEB-0593             
1 54659U 22166T   26117.08828330  .00000091  00000+0  18951-3 0  9991
2 54659  87.9218 254.1491 0002041 100.9654 259.1709 13.21824638164792
ONEWEB-0594             
1 54660U 22166U   26117.10847173  .00000022  00000+0  21017-4 0  9994
2 54660  87.9215 254.1624 0001841  97.2488 262.8855 13.21824337164811
ONEWEB-0595             
1 54661U 22166V   26117.31199390 -.00000520  00000+0 -12907-2 0  9990
2 54661  87.9225 254.0982 0001769  95.2539 264.8797 13.21828840164813
ONEWEB-0596             
1 54662U 22166W   26117.28678274 -.00000019  00000+0 -78614-4 0  9992
2 54662  87.9218 254.1180 0001764  97.8306 262.3028 13.21827187164815
ONEWEB-0597             
1 54663U 22166X   26117.11688939  .00000098  00000+0  20512-3 0  9992
2 54663  87.9214 254.1559 0002004 102.8611 257.2747 13.21827465164793
ONEWEB-0600             
1 54664U 22166Y   26117.32546938  .00000097  00000+0  20321-3 0  9995
2 54664  87.9216 254.1055 0002093  97.1948 262.9424 13.21824471164793
ONEWEB-0601             
1 54665U 22166Z   26117.08997133  .00000072  00000+0  14279-3 0  9994
2 54665  87.9214 254.1689 0002037 106.4837 253.6521 13.21824626164959
ONEWEB-0602             
1 54666U 22166AA  26117.28258221  .00000005  00000+0 -19736-4 0  9996
2 54666  87.9215 254.1369 0002142  96.6610 263.4768 13.21827274164822
