[{"OBJECT_NAME":"ONEWEB-0584","OBJECT_ID":"2022-166K","EPOCH":"2026-04-27T07:05:02.722560","MEAN_MOTION":13.21828837,"ECCENTRICITY":0.0001955,"INCLINATION":87.9216,"RA_OF_ASC_NODE":254.1166,"ARG_OF_PERICENTER":105.5423,"MEAN_ANOMALY":254.5927,"EPHEMERIS_TYPE":0,"CLASSIFICATION_TYPE":"U","NORAD_CAT_ID":54651,"ELEMENT_SET_NO":999,"REV_AT_EPOCH":16479,"BSTAR":-0.0018876000000000001,"MEAN_MOTION_DOT":-7.67e-06,"MEAN_MOTION_DDOT":0.0},{"OBJECT_NAME":"ONEWEB-0585","OBJECT_ID":"2022-166L","EPOCH":"2026-04-27T02:11:57.472224","MEAN_MOTION":13.21826058,"ECCENTRICITY":0.0001824,"INCLINATION":87.9217,"RA_OF_ASC_NODE":254.1419,"ARG_OF_PERICENTER":95.3509,"MEAN_ANOMALY":264.7833,"EPHEMERIS_TYPE":0,"CLASSIFICATION_TYPE":"U","NORAD_CAT_ID":54652,"ELEMENT_SET_NO":999,"REV_AT_EPOCH":16477,"BSTAR":5.7778e-05,"MEAN_MOTION_DOT":3.7e-07,"MEAN_MOTION_DDOT":0.0},{"OBJECT_NAME":"ONEWEB-0586","OBJECT_ID":"2022-166M","EPOCH":"2026-04-26T21:04:20.883072","MEAN_MOTION":13.21824549,"ECCENTRICITY":0.0002041,"INCLINATION":87.9216,"RA_OF_ASC_NODE":254.2107,"ARG_OF_PERICENTER":103.1715,"MEAN_ANOMALY":256.9647,"EPHEMERIS_TYPE":0,"CLASSIFICATION_TYPE":"U","NORAD_CAT_ID":54653,"ELEMENT_SET_NO":999,"REV_AT_EPOCH":16474,"BSTAR":0.00015172,"MEAN_MOTION_DOT":7.6e-07,"MEAN_MOTION_DDOT":0.0},{"OBJECT_NAME":"ONEWEB-0587","OBJECT_ID":"2022-166N","EPOCH":"2026-04-27T02:45:53.407872","MEAN_MOTION":13.2182698,"ECCENTRICITY":0.0001683,"INCLINATION":87.9228,"RA_OF_ASC_NODE":254.132,"ARG_OF_PERICENTER":89.6555,"MEAN_ANOMALY":270.4772,"EPHEMERIS_TYPE":0,"CLASSIFICATION_TYPE":"U","NORAD_CAT_ID":54654,"ELEMENT_SET_NO":999,"REV_AT_EPOCH":16493,"BSTAR":5.070000000000001e-06,"MEAN_MOTION_DOT":1.5e-07,"MEAN_MOTION_DDOT":0.0},{"OBJECT_NAME":"ONEWEB-0589","OBJECT_ID":"2022-166P","EPOCH":"2026-04-27T07:53:31.284384","MEAN_MOTION":13.21824362,"ECCENTRICITY":0.0002417,"INCLINATION":87.9214,"RA_OF_ASC_NODE":254.1081,"ARG_OF_PERICENTER":118.7968,"MEAN_ANOMALY":241.3409,"EPHEMERIS_TYPE":0,"CLASSIFICATION_TYPE":"U","NORAD_CAT_ID":54655,"ELEMENT_SET_NO":999,"REV_AT_EPOCH":16482,"BSTAR":0.00023768000000000001,"MEAN_MOTION_DOT":1.11e-06,"MEAN_MOTION_DDOT":0.0},{"OBJECT_NAME":"ONEWEB-0590","OBJECT_ID":"2022-166Q","EPOCH":"2026-04-27T03:02:39.122880","MEAN_MOTION":13.21826944,"ECCENTRICITY":0.0001526,"INCLINATION":87.9223,"RA_OF_ASC_NODE":254.1336,"ARG_OF_PERICENTER":110.4537,"MEAN_ANOMALY":249.6761,"EPHEMERIS_TYPE":0,"CLASSIFICATION_TYPE":"U","NORAD_CAT_ID":54656,"ELEMENT_SET_NO":999,"REV_AT_EPOCH":16478,"BSTAR":-0.00028612,"MEAN_MOTION_DOT":-1.05e-06,"MEAN_MOTION_DDOT":0.0},{"OBJECT_NAME":"ONEWEB-0591","OBJECT_ID":"2022-166R","EPOCH":"2026-04-27T06:57:48.173760","MEAN_MOTION":13.21842402,"ECCENTRICITY":0.0001883,"INCLINATION":87.9217,"RA_OF_ASC_NODE":254.1199,"ARG_OF_PERICENTER":99.6683,"MEAN_ANOMALY":260.4663,"EPHEMERIS_TYPE":0,"CLASSIFICATION_TYPE":"U","NORAD_CAT_ID":54657,"ELEMENT_SET_NO":999,"REV_AT_EPOCH":16483,"BSTAR":-0.0074111,"MEAN_MOTION_DOT":-3.048e-05,"MEAN_MOTION_DDOT":0.0},{"OBJECT_NAME":"ONEWEB-0592","OBJECT_ID":"2022-166S","EPOCH":"2026-04-27T07:02:39.093792","MEAN_MOTION":13.21827267,"ECCENTRICITY":0.0001851,"INCLINATION":87.9225,"RA_OF_ASC_NODE":254.093,"ARG_OF_PERICENTER":99.7355,"MEAN_ANOMALY":260.3988,"EPHEMERIS_TYPE":0,"CLASSIFICATION_TYPE":"U","NORAD_CAT_ID":54658,"ELEMENT_SET_NO":999,"REV_AT_EPOCH":16471,"BSTAR":-5.9214000000000006e-05,"MEAN_MOTION_DOT":-1.1e-07,"MEAN_MOTION_DDOT":0.0},{"OBJECT_NAME":"ONEWEB-0593","OBJECT_ID":"2022-166T","EPOCH":"2026-04-27T02:07:07.677120","MEAN_MOTION":13.21824638,"ECCENTRICITY":0.0002041,"INCLINATION":87.9218,"RA_OF_ASC_NODE":254.1491,"ARG_OF_PERICENTER":100.9654,"MEAN_ANOMALY":259.1709,"EPHEMERIS_TYPE":0,"CLASSIFICATION_TYPE":"U","NORAD_CAT_ID":54659,"ELEMENT_SET_NO":999,"REV_AT_EPOCH":16479,"BSTAR":0.00018951000000000002,"MEAN_MOTION_DOT":9.1e-07,"MEAN_MOTION_DDOT":0.0},{"OBJECT_NAME":"ONEWEB-0594","OBJECT_ID":"2022-166U","EPOCH":"2026-04-27T02:36:11.957472","MEAN_MOTION":13.21824337,"ECCENTRICITY":0.0001841,"INCLINATION":87.9215,"RA_OF_ASC_NODE":254.1624,"ARG_OF_PERICENTER":97.2488,"MEAN_ANOMALY":262.8855,"EPHEMERIS_TYPE":0,"CLASSIFICATION_TYPE":"U","NORAD_CAT_ID":54660,"ELEMENT_SET_NO":999,"REV_AT_EPOCH":16481,"BSTAR":2.1017000000000002e-05,"MEAN_MOTION_DOT":2.2e-07,"MEAN_MOTION_DDOT":0.0},{"OBJECT_NAME":"ONEWEB-0595","OBJECT_ID":"2022-166V","EPOCH":"2026-04-27T07:29:16.272960","MEAN_MOTION":13.2182884,"ECCENTRICITY":0.0001769,"INCLINATION":87.9225,"RA_OF_ASC_NODE":254.0982,"ARG_OF_PERICENTER":95.2539,"MEAN_ANOMALY":264.8797,"EPHEMERIS_TYPE":0,"CLASSIFICATION_TYPE":"U","NORAD_CAT_ID":54661,"ELEMENT_SET_NO":999,"REV_AT_EPOCH":16481,"BSTAR":-0.0012906999999999999,"MEAN_MOTION_DOT":-5.2e-06,"MEAN_MOTION_DDOT":0.0},{"OBJECT_NAME":"ONEWEB-0596","OBJECT_ID":"2022-166W","EPOCH":"2026-04-27T06:52:58.028736","MEAN_MOTION":13.21827187,"ECCENTRICITY":0.0001764,"INCLINATION":87.9218,"RA_OF_ASC_NODE":254.118,"ARG_OF_PERICENTER":97.8306,"MEAN_ANOMALY":262.3028,"EPHEMERIS_TYPE":0,"CLASSIFICATION_TYPE":"U","NORAD_CAT_ID":54662,"ELEMENT_SET_NO":999,"REV_AT_EPOCH":16481,"BSTAR":-7.8614e-05,"MEAN_MOTION_DOT":-1.9e-07,"MEAN_MOTION_DDOT":0.0},{"OBJECT_NAME":"ONEWEB-0597","OBJECT_ID":"2022-166X","EPOCH":"2026-04-27T02:48:19.243296","MEAN_MOTION":13.21827465,"ECCENTRICITY":0.0002004,"INCLINATION":87.9214,"RA_OF_ASC_NODE":254.1559,"ARG_OF_PERICENTER":102.8611,"MEAN_ANOMALY":257.2747,"EPHEMERIS_TYPE":0,"CLASSIFICATION_TYPE":"U","NORAD_CAT_ID":54663,"ELEMENT_SET_NO":999,"REV_AT_EPOCH":16479,"BSTAR":0.00020512,"MEAN_MOTION_DOT":9.8e-07,"MEAN_MOTION_DDOT":0.0},{"OBJECT_NAME":"ONEWEB-0600","OBJECT_ID":"2022-166Y","EPOCH":"2026-04-27T07:48:40.554432","MEAN_MOTION":13.21824471,"ECCENTRICITY":0.0002093,"INCLINATION":87.9216,"RA_OF_ASC_NODE":254.1055,"ARG_OF_PERICENTER":97.1948,"MEAN_ANOMALY":262.9424,"EPHEMERIS_TYPE":0,"CLASSIFICATION_TYPE":"U","NORAD_CAT_ID":54664,"ELEMENT_SET_NO":999,"REV_AT_EPOCH":16479,"BSTAR":0.00020321,"MEAN_MOTION_DOT":9.7e-07,"MEAN_MOTION_DDOT":0.0},{"OBJECT_NAME":"ONEWEB-0601","OBJECT_ID":"2022-166Z","EPOCH":"2026-04-27T02:09:33.522912","MEAN_MOTION":13.21824626,"ECCENTRICITY":0.0002037,"INCLINATION":87.9214,"RA_OF_ASC_NODE":254.1689,"ARG_OF_PERICENTER":106.4837,"MEAN_ANOMALY":253.6521,"EPHEMERIS_TYPE":0,"CLASSIFICATION_TYPE":"U","NORAD_CAT_ID":54665,"ELEMENT_SET_NO":999,"REV_AT_EPOCH":16495,"BSTAR":0.00014279,"MEAN_MOTION_DOT":7.2e-07,"MEAN_MOTION_DDOT":0.0},{"OBJECT_NAME":"ONEWEB-0602","OBJECT_ID":"2022-166AA","EPOCH":"2026-04-27T06:46:55.102944","MEAN_MOTION":13.21827274,"ECCENTRICITY":0.0002142,"INCLINATION":87.9215,"RA_OF_ASC_NODE":254.1369,"ARG_OF_PERICENTER":96.661,"MEAN_ANOMALY":263.4768,"EPHEMERIS_TYPE":0,"CLASSIFICATION_TYPE":"U","NORAD_CAT_ID":54666,"ELEMENT_SET_NO":999,"REV_AT_EPOCH":16482,"BSTAR":-1.9736000000000002e-05,"MEAN_MOTION_DOT":5e-08,"MEAN_MOTION_DDOT":0.0}]